H1 CPF 01  gfz 2022 03 27 01  5861 tandemx   
H2 1003001  6202 36605    2022 03 27 00 59 42 2022 04 01 00 00 42   120 1 1  0 0 0
H9
10 0 59665   3582.000000  0   -1538740.389  -2740100.633   6119161.623
10 0 59665   3702.000000  0   -1386680.670  -1899822.743   6463557.668
10 0 59665   3822.000000  0   -1195449.063  -1029388.465   6694335.046
10 0 59665   3942.000000  0    -967997.900   -144654.263   6807463.272
10 0 59665   4062.000000  0    -708187.734    738340.239   6800967.531
10 0 59665   4182.000000  0    -420721.712   1603662.442   6674961.734
10 0 59665   4302.000000  0    -111060.269   2435774.096   6431646.692
10 0 59665   4422.000000  0     214682.079   3219810.239   6075273.724
10 0 59665   4542.000000  0     549855.622   3941845.949   5612075.088
10 0 59665   4662.000000  0     887408.659   4589147.421   5050160.585
10 0 59665   4782.000000  0    1220033.303   5150402.437   4399381.430
10 0 59665   4902.000000  0    1540320.063   5615925.412   3671161.759
10 0 59665   5022.000000  0    1840918.840   5977833.757   2878303.744
10 0 59665   5142.000000  0    2114705.039   6230192.644   2034761.099
10 0 59665   5262.000000  0    2354941.352   6369120.031   1155388.993
10 0 59665   5382.000000  0    2555435.310   6392850.071    255675.156
10 0 59665   5502.000000  0    2710686.248   6301753.419   -648540.333
10 0 59665   5622.000000  0    2816019.588   6098315.860  -1541351.960
10 0 59665   5742.000000  0    2867704.761   5787074.247  -2407076.317
10 0 59665   5862.000000  0    2863053.577   5374512.351  -3230534.242
10 0 59665   5982.000000  0    2800496.515   4868918.072  -3997321.693
10 0 59665   6102.000000  0    2679634.666   4280206.875  -4694061.717
10 0 59665   6222.000000  0    2501266.955   3619717.765  -5308633.803
10 0 59665   6342.000000  0    2267393.347   2899987.022  -5830377.239
10 0 59665   6462.000000  0    1981194.083   2134504.260  -6250266.693
10 0 59665   6582.000000  0    1646985.104   1337456.361  -6561056.407
10 0 59665   6702.000000  0    1270152.666    523465.569  -6757393.516
10 0 59665   6822.000000  0     857066.502   -292674.985  -6835901.562
10 0 59665   6942.000000  0     414972.405  -1096265.233  -6795231.824
10 0 59665   7062.000000  0     -48132.243  -1872956.030  -6636082.211
10 0 59665   7182.000000  0    -523638.628  -2608997.627  -6361187.172
10 0 59665   7302.000000  0   -1002482.544  -3291479.176  -5975277.327
10 0 59665   7422.000000  0   -1475312.366  -3908553.111  -5485005.760
10 0 59665   7542.000000  0   -1932667.114  -4449641.588  -4898845.003
10 0 59665   7662.000000  0   -2365162.820  -4905623.382  -4226952.749
10 0 59665   7782.000000  0   -2763683.536  -5268995.466  -3481005.913
10 0 59665   7902.000000  0   -3119572.261  -5534005.449  -2674005.919
10 0 59665   8022.000000  0   -3424818.163  -5696752.668  -1820057.750
10 0 59665   8142.000000  0   -3672236.143  -5755254.783   -934125.017
10 0 59665   8262.000000  0   -3855633.154  -5709476.728    -31764.680
10 0 59665   8382.000000  0   -3969956.384  -5561320.362    871152.312
10 0 59665   8502.000000  0   -4011419.965  -5314574.987   1758728.611
10 0 59665   8622.000000  0   -3977606.176  -4974828.763   2615330.020
10 0 59665   8742.000000  0   -3867538.432  -4549343.852   3425869.078
10 0 59665   8862.000000  0   -3681724.891  -4046899.534   4176077.502
10 0 59665   8982.000000  0   -3422171.113  -3477606.203   4852762.043
10 0 59665   9102.000000  0   -3092361.935  -2852695.266   5444037.140
10 0 59665   9222.000000  0   -2697213.681  -2184291.923   5939531.274
10 0 59665   9342.000000  0   -2242997.911  -1485175.920   6330564.968
10 0 59665   9462.000000  0   -1737238.573   -768533.534   6610299.173
10 0 59665   9582.000000  0   -1188582.613    -47705.112   6773848.394
10 0 59665   9702.000000  0    -606650.665    664062.527   6818358.389
10 0 59665   9822.000000  0      -1868.747   1353858.495   6743053.654
10 0 59665   9942.000000  0     614718.349   2009341.899   6549250.468
10 0 59665  10062.000000  0    1231648.553   2618962.752   6240334.806
10 0 59665  10182.000000  0    1837254.721   3172165.464   5821706.531
10 0 59665  10302.000000  0    2419884.740   3659574.106   5300691.252
10 0 59665  10422.000000  0    2968127.281   4073156.141   4686418.551
10 0 59665  10542.000000  0    3471037.927   4406359.471   3989666.025
10 0 59665  10662.000000  0    3918359.226   4654220.865   3222675.096
10 0 59665  10782.000000  0    4300735.967   4813446.564   2398938.552
10 0 59665  10902.000000  0    4609913.862   4882456.511   1532958.083
10 0 59665  11022.000000  0    4838917.549   4861395.196    639985.983
10 0 59665  11142.000000  0    4982208.573   4752108.165   -264251.532
10 0 59665  11262.000000  0    5035811.512   4558081.351  -1163841.393
10 0 59665  11382.000000  0    4997409.053   4284347.450  -2042971.440
10 0 59665  11502.000000  0    4866404.723   3937362.515  -2886215.203
10 0 59665  11622.000000  0    4643950.371   3524855.251  -3678807.603
10 0 59665  11742.000000  0    4332937.754   3055653.914  -4406905.335
10 0 59665  11862.000000  0    3937955.919   2539494.701  -5057826.654
10 0 59665  11982.000000  0    3465216.737   1986816.539  -5620266.374
10 0 59665  12102.000000  0    2922449.838   1408548.148  -6084483.638
10 0 59665  12222.000000  0    2318769.378    815891.769  -6442459.593
10 0 59665  12342.000000  0    1664517.120    220108.136  -6688023.500
10 0 59665  12462.000000  0     971085.814   -367693.258  -6816948.872
10 0 59665  12582.000000  0     250722.037   -936757.309  -6827019.521
10 0 59665  12702.000000  0    -483686.219  -1476874.980  -6718061.465
10 0 59665  12822.000000  0   -1218833.635  -1978560.901  -6491945.792
10 0 59665  12942.000000  0   -1941233.091  -2433216.786  -6152560.953
10 0 59665  13062.000000  0   -2637457.462  -2833277.107  -5705752.486
10 0 59665  13182.000000  0   -3294384.784  -3172335.106  -5159233.370
10 0 59665  13302.000000  0   -3899445.524  -3445248.827  -4522463.295
10 0 59665  13422.000000  0   -4440865.404  -3648222.905  -3806495.325
10 0 59665  13542.000000  0   -4907898.955  -3778864.693  -3023793.732
10 0 59665  13662.000000  0   -5291049.545  -3836213.654  -2188023.651
10 0 59665  13782.000000  0   -5582269.758  -3820742.153  -1313815.112
10 0 59665  13902.000000  0   -5775136.821  -3734327.113   -416506.207
10 0 59665  14022.000000  0   -5864998.655  -3580192.978    488130.206
10 0 59665  14142.000000  0   -5849086.573  -3362827.274   1384171.153
10 0 59665  14262.000000  0   -5726589.360  -3087869.374   2255834.095
10 0 59665  14382.000000  0   -5498686.696  -2761975.179   3087763.798
10 0 59665  14502.000000  0   -5168543.139  -2392663.467   3865310.217
10 0 59665  14622.000000  0   -4741261.341  -1988145.533   4574793.042
10 0 59665  14742.000000  0   -4223795.903  -1557143.258   5203743.951
10 0 59665  14862.000000  0   -3624832.975  -1108702.208   5741123.856
10 0 59665  14982.000000  0   -2954637.743   -652002.344   6177514.454
10 0 59665  15102.000000  0   -2224870.874   -196169.457   6505279.456
10 0 59665  15222.000000  0   -1448378.837    249906.877   6718691.146
10 0 59665  15342.000000  0    -638964.739    677744.613   6814023.927
10 0 59665  15462.000000  0     188857.686   1079429.324   6789615.274
10 0 59665  15582.000000  0    1020123.715   1447760.059   6645892.871
10 0 59665  15702.000000  0    1839687.502   1776378.800   6385367.503
10 0 59665  15822.000000  0    2632497.211   2059880.290   6012591.472
10 0 59665  15942.000000  0    3383871.993   2293901.627   5534084.751
10 0 59665  16062.000000  0    4079777.134   2475190.224   4958226.690
10 0 59665  16182.000000  0    4707089.858   2601649.132   4295114.977
10 0 59665  16302.000000  0    5253853.548   2672359.169   3556394.927
10 0 59665  16422.000000  0    5709516.405   2687575.652   2755055.792
10 0 59665  16542.000000  0    6065140.945   2648699.368   1905200.994
10 0 59665  16662.000000  0    6313587.800   2558224.963   1021797.439
10 0 59665  16782.000000  0    6449664.954   2419665.112    120404.840
10 0 59665  16902.000000  0    6470237.333   2237453.083   -783107.667
10 0 59665  17022.000000  0    6374293.227   2016825.738  -1672849.648
10 0 59665  17142.000000  0    6162971.159   1763692.001  -2533194.871
10 0 59665  17262.000000  0    5839543.598   1484488.337  -3349063.365
10 0 59665  17382.000000  0    5409356.823   1186024.745  -4106189.261
10 0 59665  17502.000000  0    4879730.095    875326.427  -4791370.203
10 0 59665  17622.000000  0    4259818.169    559475.632  -5392692.284
10 0 59665  17742.000000  0    3560442.662    245456.814  -5899728.922
10 0 59665  17862.000000  0    2793894.833    -59991.355  -6303711.867
10 0 59665  17982.000000  0    1973713.675   -350514.728  -6597671.346
10 0 59665  18102.000000  0    1114446.293   -620270.634  -6776544.752
10 0 59665  18222.000000  0     231392.082   -864041.085  -6837255.908
10 0 59665  18342.000000  0    -659665.588  -1077329.731  -6778760.911
10 0 59665  18462.000000  0   -1542733.987  -1256442.170  -6602064.030
10 0 59665  18582.000000  0   -2401891.718  -1398548.588  -6310202.818
10 0 59665  18702.000000  0   -3221569.207  -1501727.572  -5908200.340
10 0 59665  18822.000000  0   -3986825.496  -1564991.111  -5402988.942
10 0 59665  18942.000000  0   -4683621.361  -1588290.446  -4803302.909
10 0 59665  19062.000000  0   -5299080.452  -1572501.734  -4119538.520
10 0 59665  19182.000000  0   -5821734.283  -1519392.032  -3363584.709
10 0 59665  19302.000000  0   -6241746.592  -1431566.040  -2548624.282
10 0 59665  19422.000000  0   -6551110.199  -1312393.865  -1688908.217
10 0 59665  19542.000000  0   -6743811.686  -1165921.591   -799507.223
10 0 59665  19662.000000  0   -6815959.501   -996766.330    103955.927
10 0 59665  19782.000000  0   -6765870.226   -809997.247   1005587.426
10 0 59665  19902.000000  0   -6594110.893   -611007.332   1889510.289
10 0 59665  20022.000000  0   -6303495.787   -405378.447   2740153.159
99
